     2.11           N: GPS NAV DATA                         RINEX VERSION / TYPE
CONVBIN 2.4.3                           20210829 212930 UTC PGM / RUN BY / DATE 
log: logs/21_08_29_19_40_15_brdc.rtcm                       COMMENT             
format: RTCM 3                                              COMMENT             
                                                            END OF HEADER       
 2 21  8 29 20  0  0.0 -.629306770861E-03 -.227373675443E-11  .000000000000E+00
     .500000000000E+02 -.376875000000E+02  .447840082908E-08 -.597489727160E+00
    -.207871198654E-05  .202362574637E-01  .763125717640E-05  .515374753571E+04
     .720000000000E+05 -.286847352982E-06  .100887680173E+01  .109896063805E-06
     .963751999316E+00  .242312500000E+03 -.149688751983E+01 -.840106422376E-08
     .255724937684E-09  .100000000000E+01  .217300000000E+04  .000000000000E+00
     .200000000000E+01  .000000000000E+00 -.176951289177E-07  .500000000000E+02
     .000000000000E+00  .400000000000E+01
 3 21  8 29 20  0  0.0 -.271244905889E-03 -.130739863380E-10  .000000000000E+00
     .190000000000E+02 -.272812500000E+02  .450411618595E-08 -.196513771690E+01
    -.140443444252E-05  .385939085390E-02  .734254717827E-05  .515378049469E+04
     .720000000000E+05  .856816768646E-07  .213170734393E+01  .316649675369E-07
     .970374619221E+00  .242625000000E+03  .963352766047E+00 -.792783022595E-08
     .401802450971E-09  .100000000000E+01  .217300000000E+04  .000000000000E+00
     .200000000000E+01  .000000000000E+00  .186264514923E-08  .190000000000E+02
     .000000000000E+00  .400000000000E+01
 4 21  8 29 20  0  0.0 -.204223673791E-03 -.227373675443E-12  .000000000000E+00
     .600000000000E+02 -.181875000000E+02  .478734226916E-08  .866207865080E+00
    -.931322574615E-06  .135948287789E-02  .737607479095E-05  .515369967461E+04
     .720000000000E+05  .186264514923E-08 -.307077602535E+01 -.633299350739E-07
     .961060689407E+00  .233937500000E+03 -.302412600063E+01 -.809140846821E-08
    -.177864551630E-09  .100000000000E+01  .217300000000E+04  .000000000000E+00
     .200000000000E+01  .000000000000E+00 -.419095158577E-08  .316000000000E+03
     .000000000000E+00  .400000000000E+01
 5 21  8 29 20  0  0.0 -.527100637555E-04 -.125055521494E-11  .000000000000E+00
     .880000000000E+02 -.267500000000E+02  .478377069182E-08  .173650797577E+01
    -.136159360409E-05  .611357984599E-02  .761449337006E-05  .515357876015E+04
     .720000000000E+05 -.184401869774E-06  .209359560986E+01 -.894069671631E-07
     .957326964054E+00  .233281250000E+03  .978943761348E+00 -.812640992616E-08
     .309298597814E-09  .100000000000E+01  .217300000000E+04  .000000000000E+00
     .200000000000E+01  .000000000000E+00 -.111758708954E-07  .880000000000E+02
     .000000000000E+00  .400000000000E+01
 6 21  8 29 20  0  0.0  .646724365652E-04  .682121026330E-11  .000000000000E+00
     .110000000000E+02 -.450312500000E+02  .391944897507E-08 -.574619627465E+00
    -.260025262833E-05  .214900530409E-02  .724010169506E-05  .515356709480E+04
     .720000000000E+05 -.540167093277E-07  .108638761730E+01 -.298023223877E-07
     .984596302720E+00  .252718750000E+03 -.993105122883E+00 -.780782522726E-08
     .171792870148E-09  .100000000000E+01  .217300000000E+04  .000000000000E+00
     .200000000000E+01  .000000000000E+00  .372529029846E-08  .110000000000E+02
     .000000000000E+00  .400000000000E+01
 7 21  8 29 20  0  0.0  .235019251704E-03  .750333128963E-11  .000000000000E+00
     .104000000000E+03  .351562500000E+02  .463983612494E-08 -.148010321347E+01
     .174343585968E-05  .152591711376E-01  .904500484467E-05  .515374181366E+04
     .720000000000E+05  .331550836563E-06 -.205026172492E+01 -.875443220139E-07
     .951239197239E+00  .198281250000E+03 -.230901379341E+01 -.789282876800E-08
    -.248224625266E-09  .100000000000E+01  .217300000000E+04  .000000000000E+00
     .200000000000E+01  .000000000000E+00 -.111758708954E-07  .104000000000E+03
     .000000000000E+00  .400000000000E+01
 8 21  8 29 20  0  0.0 -.344966538250E-04 -.147792889038E-11  .000000000000E+00
     .280000000000E+02 -.117187500000E+02  .435875298813E-08  .144751253078E+01
    -.566244125366E-06  .643685110845E-02  .437535345554E-05  .515364679527E+04
     .720000000000E+05 -.558793544769E-07  .184564231841E-01  .912696123123E-07
     .966757978516E+00  .298093750000E+03  .571054022121E-01 -.818641242551E-08
    -.152863510236E-09  .100000000000E+01  .217300000000E+04  .000000000000E+00
     .200000000000E+01  .000000000000E+00  .512227416039E-08  .280000000000E+02
     .000000000000E+00  .400000000000E+01
 9 21  8 29 20  0  0.0 -.359978061169E-03 -.795807864051E-12  .000000000000E+00
     .260000000000E+02 -.175625000000E+02  .487806033365E-08  .179637419991E+01
    -.103935599327E-05  .208033015952E-02  .735744833946E-05  .515371739197E+04
     .720000000000E+05 -.372529029846E-08 -.312234581138E+01 -.931322574615E-08
     .953971059238E+00  .231500000000E+03  .181345488030E+01 -.808355099806E-08
    -.127148153374E-09  .100000000000E+01  .217300000000E+04  .000000000000E+00
     .200000000000E+01  .000000000000E+00  .139698386192E-08  .260000000000E+02
     .000000000000E+00  .400000000000E+01
10 21  8 29 20  0  0.0 -.192516483366E-03 -.773070496507E-11  .000000000000E+00
     .470000000000E+02 -.179375000000E+02  .443482758551E-08 -.283572335263E+01
    -.976026058197E-06  .685602740850E-02  .777840614319E-05  .515367364883E+04
     .720000000000E+05 -.391155481339E-07  .212886228864E+01 -.968575477600E-07
     .970231370282E+00  .237406250000E+03 -.258340687729E+01 -.784175521201E-08
     .357157734196E-09  .100000000000E+01  .217300000000E+04  .000000000000E+00
     .200000000000E+01  .000000000000E+00  .232830643654E-08  .470000000000E+02
     .000000000000E+00  .400000000000E+01
12 21  8 29 20  0  0.0 -.899047590792E-04 -.545696821064E-11  .000000000000E+00
     .900000000000E+02  .576875000000E+02  .413088635371E-08 -.221643465538E+01
     .307708978653E-05  .823730521370E-02  .607408583164E-05  .515369157982E+04
     .720000000000E+05  .968575477600E-07 -.938490904850E+00 -.558793544769E-07
     .972280933141E+00  .269562500000E+03  .123182195042E+01 -.781068248913E-08
    -.485734518507E-10  .100000000000E+01  .217300000000E+04  .000000000000E+00
     .200000000000E+01  .000000000000E+00 -.125728547573E-07  .900000000000E+02
     .000000000000E+00  .400000000000E+01
13 21  8 29 20  0  0.0  .178156420588E-03  .522959453519E-11  .000000000000E+00
     .103000000000E+03 -.150312500000E+02  .467090884782E-08  .819586117109E+00
    -.620260834694E-06  .533546647057E-02  .772625207901E-05  .515368101883E+04
     .720000000000E+05  .260770320892E-07 -.297227001662E+01  .894069671631E-07
     .968630542916E+00  .234281250000E+03  .959938367915E+00 -.812176687562E-08
    -.182507602174E-09  .100000000000E+01  .217300000000E+04  .000000000000E+00
     .200000000000E+01  .000000000000E+00 -.111758708954E-07  .103000000000E+03
     .000000000000E+00  .400000000000E+01
14 21  8 29 19 59 44.0  .127987004817E-04 -.841282599140E-11  .000000000000E+00
     .101000000000E+03  .645312500000E+02  .453126017375E-08 -.224442118524E+01
     .336579978466E-05  .107015005779E-02  .633858144283E-05  .515364771652E+04
     .719840000000E+05 -.149011611938E-07 -.967114120071E+00  .931322574615E-08
     .955718566086E+00  .254625000000E+03  .308543332635E+01 -.813748181592E-08
     .714315468392E-11  .100000000000E+01  .217300000000E+04  .000000000000E+00
     .200000000000E+01  .000000000000E+00 -.791624188423E-08  .869000000000E+03
     .000000000000E+00  .400000000000E+01
15 21  8 29 20  0  0.0 -.124872662127E-03  .272848410532E-11  .000000000000E+00
     .390000000000E+02 -.151875000000E+02  .566666461076E-08  .470054169631E+00
    -.512227416039E-06  .135629287688E-01  .694207847118E-05  .515366450882E+04
     .720000000000E+05 -.819563865662E-07  .305932236279E+01  .987201929092E-07
     .929690936193E+00  .229875000000E+03  .101794804660E+01 -.876643658584E-08
    -.159649507186E-09  .100000000000E+01  .217300000000E+04  .000000000000E+00
     .200000000000E+01  .000000000000E+00 -.107102096081E-07  .390000000000E+02
     .000000000000E+00  .400000000000E+01
16 21  8 29 20  0  0.0 -.381865538657E-03 -.625277607469E-11  .000000000000E+00
     .750000000000E+02  .714687500000E+02  .422303304913E-08  .225025780121E+01
     .347569584846E-05  .121867695125E-01  .597350299358E-05  .515375099945E+04
     .720000000000E+05 -.137835741043E-06 -.919787614240E+00 -.191852450371E-06
     .972320762548E+00  .272843750000E+03  .680199215222E+00 -.797497504686E-08
    -.142863093678E-10  .100000000000E+01  .217300000000E+04  .000000000000E+00
     .200000000000E+01  .000000000000E+00 -.102445483208E-07  .750000000000E+02
     .000000000000E+00  .400000000000E+01
17 21  8 29 20  0  0.0  .496858730912E-03  .579802872380E-11  .000000000000E+00
     .750000000000E+02 -.139062500000E+02  .398516599816E-08  .140448218525E+01
    -.888481736183E-06  .134903939907E-01  .485777854919E-05  .515365527725E+04
     .720000000000E+05 -.521540641785E-07  .977763520004E-01 -.303611159325E-06
     .981668321923E+00  .295625000000E+03 -.155974738345E+01 -.805676416800E-08
    -.278583032673E-10  .100000000000E+01  .217300000000E+04  .000000000000E+00
     .200000000000E+01  .000000000000E+00 -.111758708954E-07  .750000000000E+02
     .000000000000E+00  .400000000000E+01
